start=new Date('2022-10-21T00:00:00.000Z').valueOf();
sats=[{"LAUNCH_DATE":"2022-05-06","TIME_SYSTEM":"UTC","DECAY_DATE":null,"OBJECT_NAME":"STARLINK-3864","MEAN_ELEMENT_THEORY":"SGP4","PERIOD":"95.438","BSTAR":"0.00012740000000","EPHEMERIS_TYPE":"0","COUNTRY_CODE":"US","RA_OF_ASC_NODE":"208.6912","CLASSIFICATION_TYPE":"U","RCS_SIZE":"LARGE","REF_FRAME":"TEME","EPOCH":"2022-10-20T11:28:25.014720","ARG_OF_PERICENTER":"52.6001","SEMIMAJOR_AXIS":"6917.884","REV_AT_EPOCH":"2562","ECCENTRICITY":"0.00019250","OBJECT_ID":"2022-049T","MEAN_ANOMALY":"307.5166","NORAD_CAT_ID":"52468","TLE_LINE2":"2 52468  53.2176 208.6912 0001925  52.6001 307.5166 15.08838853 25622","PERIAPSIS":"538.417","APOAPSIS":"541.081","OBJECT_TYPE":"PAYLOAD","TLE_LINE1":"1 52468U 22049T   22293.47806730  .00001740  00000-0  12740-3 0  9994","SITE":"AFETR","FILE":"3625892","CENTER_NAME":"EARTH","GP_ID":"215691003","MEAN_MOTION_DDOT":"0.0000000000000","INCLINATION":"53.2176","MEAN_MOTION_DOT":"0.00001740","ELEMENT_SET_NO":"999","MEAN_MOTION":"15.08838853"},{"ELEMENT_SET_NO":"999","MEAN_MOTION":"15.08835264","INCLINATION":"53.2177","MEAN_MOTION_DDOT":"0.0000000000000","MEAN_MOTION_DOT":"0.00001643","OBJECT_TYPE":"PAYLOAD","TLE_LINE1":"1 52469U 22049R   22293.81663055  .00001643  00000-0  12131-3 0  9990","SITE":"AFETR","FILE":"3626396","CENTER_NAME":"EARTH","GP_ID":"215727466","APOAPSIS":"540.931","PERIAPSIS":"538.589","REV_AT_EPOCH":"2567","ECCENTRICITY":"0.00016930","OBJECT_ID":"2022-049U","MEAN_ANOMALY":"300.3669","TLE_LINE2":"2 52469  53.2177 207.1694 0001693  59.7491 300.3669 15.08835264 25675","NORAD_CAT_ID":"52469","CLASSIFICATION_TYPE":"U","RA_OF_ASC_NODE":"207.1694","RCS_SIZE":"LARGE","REF_FRAME":"TEME","EPOCH":"2022-10-20T19:35:56.879520","ARG_OF_PERICENTER":"59.7491","SEMIMAJOR_AXIS":"6917.895","COUNTRY_CODE":"US","LAUNCH_DATE":"2022-05-06","TIME_SYSTEM":"UTC","OBJECT_NAME":"STARLINK-3828","DECAY_DATE":null,"PERIOD":"95.438","MEAN_ELEMENT_THEORY":"SGP4","EPHEMERIS_TYPE":"0","BSTAR":"0.00012131000000"},{"LAUNCH_DATE":"2022-05-06","TIME_SYSTEM":"UTC","BSTAR":"0.00006926600000","EPHEMERIS_TYPE":"0","DECAY_DATE":null,"OBJECT_NAME":"STARLINK-3859","PERIOD":"95.438","MEAN_ELEMENT_THEORY":"SGP4","COUNTRY_CODE":"US","RCS_SIZE":"LARGE","REF_FRAME":"TEME","RA_OF_ASC_NODE":"208.7247","CLASSIFICATION_TYPE":"U","SEMIMAJOR_AXIS":"6917.886","ARG_OF_PERICENTER":"58.5733","EPOCH":"2022-10-20T11:17:49.047648","OBJECT_ID":"2022-049V","REV_AT_EPOCH":"2562","ECCENTRICITY":"0.00017430","MEAN_ANOMALY":"301.5429","TLE_LINE2":"2 52470  53.2188 208.7247 0001743  58.5733 301.5429 15.08838167 25629","NORAD_CAT_ID":"52470","APOAPSIS":"540.957","PERIAPSIS":"538.545","SITE":"AFETR","FILE":"3625892","TLE_LINE1":"1 52470U 22049V   22293.47070657  .00000814  00000-0  69266-4 0  9995","OBJECT_TYPE":"PAYLOAD","GP_ID":"215691505","CENTER_NAME":"EARTH","MEAN_MOTION_DDOT":"0.0000000000000","INCLINATION":"53.2188","MEAN_MOTION_DOT":"0.00000814","ELEMENT_SET_NO":"999","MEAN_MOTION":"15.08838167"},{"COUNTRY_CODE":"US","TIME_SYSTEM":"UTC","LAUNCH_DATE":"2022-05-06","MEAN_ELEMENT_THEORY":"SGP4","PERIOD":"95.437","DECAY_DATE":null,"OBJECT_NAME":"STARLINK-3862","BSTAR":"0.00024972000000","EPHEMERIS_TYPE":"0","ECCENTRICITY":"0.00017840","REV_AT_EPOCH":"2566","OBJECT_ID":"2022-049W","NORAD_CAT_ID":"52471","TLE_LINE2":"2 52471  53.2162 207.4827 0001784  53.7700 306.3457 15.08842016 25664","MEAN_ANOMALY":"306.3457","RA_OF_ASC_NODE":"207.4827","CLASSIFICATION_TYPE":"U","RCS_SIZE":"LARGE","REF_FRAME":"TEME","ARG_OF_PERICENTER":"53.7700","EPOCH":"2022-10-20T17:55:15.619584","SEMIMAJOR_AXIS":"6917.874","TLE_LINE1":"1 52471U 22049W   22293.74670856  .00003689  00000-0  24972-3 0  9990","OBJECT_TYPE":"PAYLOAD","FILE":"3626396","SITE":"AFETR","CENTER_NAME":"EARTH","GP_ID":"215726484","PERIAPSIS":"538.505","APOAPSIS":"540.973","ELEMENT_SET_NO":"999","MEAN_MOTION":"15.08842016","INCLINATION":"53.2162","MEAN_MOTION_DDOT":"0.0000000000000","MEAN_MOTION_DOT":"0.00003689"},{"REF_FRAME":"TEME","RCS_SIZE":"LARGE","CLASSIFICATION_TYPE":"U","RA_OF_ASC_NODE":"208.7403","SEMIMAJOR_AXIS":"6917.856","EPOCH":"2022-10-20T11:12:30.700800","ARG_OF_PERICENTER":"53.9912","OBJECT_ID":"2022-049X","REV_AT_EPOCH":"2578","ECCENTRICITY":"0.00017200","MEAN_ANOMALY":"306.1239","TLE_LINE2":"2 52472  53.2177 208.7403 0001720  53.9912 306.1239 15.08847992 25789","NORAD_CAT_ID":"52472","LAUNCH_DATE":"2022-05-06","TIME_SYSTEM":"UTC","BSTAR":"0.00014146000000","EPHEMERIS_TYPE":"0","DECAY_DATE":null,"OBJECT_NAME":"STARLINK-3881","MEAN_ELEMENT_THEORY":"SGP4","PERIOD":"95.437","COUNTRY_CODE":"US","MEAN_MOTION_DDOT":"0.0000000000000","INCLINATION":"53.2177","MEAN_MOTION_DOT":"0.00001964","ELEMENT_SET_NO":"999","MEAN_MOTION":"15.08847992","PERIAPSIS":"538.531","APOAPSIS":"540.911","SITE":"AFETR","FILE":"3626320","TLE_LINE1":"1 52472U 22049X   22293.46702200  .00001964  00000-0  14146-3 0  9995","OBJECT_TYPE":"PAYLOAD","CENTER_NAME":"EARTH","GP_ID":"215702321"},{"COUNTRY_CODE":"US","OBJECT_NAME":"STARLINK-3879","DECAY_DATE":null,"PERIOD":"95.438","MEAN_ELEMENT_THEORY":"SGP4","BSTAR":"0.00013953000000","EPHEMERIS_TYPE":"0","LAUNCH_DATE":"2022-05-06","TIME_SYSTEM":"UTC","MEAN_ANOMALY":"304.1778","TLE_LINE2":"2 52473  53.2185 208.7144 0001602  55.9366 304.1778 15.08835781 25627","NORAD_CAT_ID":"52473","REV_AT_EPOCH":"2562","ECCENTRICITY":"0.00016020","OBJECT_ID":"2022-049Y","ARG_OF_PERICENTER":"55.9366","EPOCH":"2022-10-20T11:23:07.073952","SEMIMAJOR_AXIS":"6917.893","CLASSIFICATION_TYPE":"U","RA_OF_ASC_NODE":"208.7144","RCS_SIZE":"LARGE","REF_FRAME":"TEME","CENTER_NAME":"EARTH","GP_ID":"215691255","TLE_LINE1":"1 52473U 22049Y   22293.47438743  .00001933  00000-0  13953-3 0  9996","OBJECT_TYPE":"PAYLOAD","SITE":"AFETR","FILE":"3625892","PERIAPSIS":"538.650","APOAPSIS":"540.867","MEAN_MOTION":"15.08835781","ELEMENT_SET_NO":"999","MEAN_MOTION_DOT":"0.00001933","MEAN_MOTION_DDOT":"0.0000000000000","INCLINATION":"53.2185"},{"BSTAR":"0.00025963000000","EPHEMERIS_TYPE":"0","OBJECT_NAME":"STARLINK-3855","DECAY_DATE":null,"PERIOD":"95.437","MEAN_ELEMENT_THEORY":"SGP4","LAUNCH_DATE":"2022-05-06","TIME_SYSTEM":"UTC","COUNTRY_CODE":"US","SEMIMAJOR_AXIS":"6917.860","ARG_OF_PERICENTER":"61.4851","EPOCH":"2022-10-20T18:01:53.030208","RCS_SIZE":"LARGE","REF_FRAME":"TEME","RA_OF_ASC_NODE":"197.4540","CLASSIFICATION_TYPE":"U","MEAN_ANOMALY":"298.6333","NORAD_CAT_ID":"52474","TLE_LINE2":"2 52474  53.2152 197.4540 0001911  61.4851 298.6333 15.08846754 25806","OBJECT_ID":"2022-049Z","REV_AT_EPOCH":"2580","ECCENTRICITY":"0.00019110","APOAPSIS":"541.047","PERIAPSIS":"538.403","GP_ID":"215725733","CENTER_NAME":"EARTH","SITE":"AFETR","FILE":"3626396","TLE_LINE1":"1 52474U 22049Z   22293.75130822  .00003847  00000-0  25963-3 0  9995","OBJECT_TYPE":"PAYLOAD","MEAN_MOTION_DOT":"0.00003847","INCLINATION":"53.2152","MEAN_MOTION_DDOT":"0.0000000000000","MEAN_MOTION":"15.08846754","ELEMENT_SET_NO":"999"},{"REF_FRAME":"TEME","RCS_SIZE":"LARGE","CLASSIFICATION_TYPE":"U","RA_OF_ASC_NODE":"208.7338","SEMIMAJOR_AXIS":"6917.884","EPOCH":"2022-10-20T11:13:53.485824","ARG_OF_PERICENTER":"62.3117","OBJECT_ID":"2022-049AA","ECCENTRICITY":"0.00015760","REV_AT_EPOCH":"2562","NORAD_CAT_ID":"52475","TLE_LINE2":"2 52475  53.2186 208.7338 0001576  62.3117 297.8035 15.08838683 25629","MEAN_ANOMALY":"297.8035","TIME_SYSTEM":"UTC","LAUNCH_DATE":"2022-05-06","BSTAR":"0.00009259600000","EPHEMERIS_TYPE":"0","MEAN_ELEMENT_THEORY":"SGP4","PERIOD":"95.438","DECAY_DATE":null,"OBJECT_NAME":"STARLINK-3882","COUNTRY_CODE":"US","INCLINATION":"53.2186","MEAN_MOTION_DDOT":"0.0000000000000","MEAN_MOTION_DOT":"0.00001186","ELEMENT_SET_NO":"999","MEAN_MOTION":"15.08838683","PERIAPSIS":"538.659","APOAPSIS":"540.840","FILE":"3625892","SITE":"AFETR","OBJECT_TYPE":"PAYLOAD","TLE_LINE1":"1 52475U 22049AA  22293.46798016  .00001186  00000-0  92596-4 0  9990","GP_ID":"215692242","CENTER_NAME":"EARTH"},{"MEAN_MOTION":"15.08856445","ELEMENT_SET_NO":"999","MEAN_MOTION_DOT":"0.00002810","INCLINATION":"53.2149","MEAN_MOTION_DDOT":"0.0000000000000","GP_ID":"215726734","CENTER_NAME":"EARTH","OBJECT_TYPE":"PAYLOAD","TLE_LINE1":"1 52476U 22049AB  22293.74761703  .00002810  00000-0  19451-3 0  9998","SITE":"AFETR","FILE":"3626396","APOAPSIS":"540.957","PERIAPSIS":"538.433","MEAN_ANOMALY":"308.4010","NORAD_CAT_ID":"52476","TLE_LINE2":"2 52476  53.2149 197.4710 0001824  51.7146 308.4010 15.08856445 27043","REV_AT_EPOCH":"2704","ECCENTRICITY":"0.00018240","OBJECT_ID":"2022-049AB","ARG_OF_PERICENTER":"51.7146","EPOCH":"2022-10-20T17:56:34.111392","SEMIMAJOR_AXIS":"6917.830","RA_OF_ASC_NODE":"197.4710","CLASSIFICATION_TYPE":"U","RCS_SIZE":"LARGE","REF_FRAME":"TEME","COUNTRY_CODE":"US","OBJECT_NAME":"STARLINK-3835","DECAY_DATE":null,"MEAN_ELEMENT_THEORY":"SGP4","PERIOD":"95.437","BSTAR":"0.00019451000000","EPHEMERIS_TYPE":"0","LAUNCH_DATE":"2022-05-06","TIME_SYSTEM":"UTC"},{"COUNTRY_CODE":"US","EPHEMERIS_TYPE":"0","BSTAR":"-0.00016270000000","PERIOD":"95.439","MEAN_ELEMENT_THEORY":"SGP4","DECAY_DATE":null,"OBJECT_NAME":"STARLINK-3860","TIME_SYSTEM":"UTC","LAUNCH_DATE":"2022-05-06","TLE_LINE2":"2 52477  53.2169 197.4366 0002017  41.4473 318.6672 15.08816055 27047","NORAD_CAT_ID":"52477","MEAN_ANOMALY":"318.6672","OBJECT_ID":"2022-049AC","ECCENTRICITY":"0.00020170","REV_AT_EPOCH":"2704","SEMIMAJOR_AXIS":"6917.954","ARG_OF_PERICENTER":"41.4473","EPOCH":"2022-10-20T18:07:12.019008","RCS_SIZE":"LARGE","REF_FRAME":"TEME","RA_OF_ASC_NODE":"197.4366","CLASSIFICATION_TYPE":"U","CENTER_NAME":"EARTH","GP_ID":"215727467","FILE":"3626396","SITE":"AFETR","OBJECT_TYPE":"PAYLOAD","TLE_LINE1":"1 52477U 22049AC  22293.75500022 -.00002875  00000-0 -16270-3 0  9994","APOAPSIS":"541.214","PERIAPSIS":"538.423","MEAN_MOTION":"15.08816055","ELEMENT_SET_NO":"999","MEAN_MOTION_DOT":"-0.00002875","INCLINATION":"53.2169","MEAN_MOTION_DDOT":"0.0000000000000"}];
